     2.100          NAVIGATION                              RINEX VERSION / TYPE
fic2rin                                 11/08/2008 07:31:28 PGM / RUN BY / DATE
                                                            END OF HEADER
 6 08 11  7 14  0  0.0  .147625803947D-03 -.648014975013D-11  .000000000000D+00
     .360000000000D+02 -.244375000000D+02  .514307137242D-08  .271688706749D+01
    -.116974115372D-05  .561560341157D-02  .992789864540D-05  .515371661377D+04
     .482400000000D+06  .124797224998D-06  .214611390955D+01 -.763684511185D-07
     .933424227060D+00  .169250000000D+03 -.153637048797D+01 -.817319758934D-08
    -.528593446610D-10  .100000000000D+01  .150400000000D+04  .000000000000D+00
     .240000000000D+01  .000000000000D+00 -.465661287308D-08  .360000000000D+02
     .475206000000D+06  .400000000000D+01
 7 08 11  7 14  0  0.0  .230032019317D-04  .227373675443D-12  .000000000000D+00
     .500000000000D+02  .140000000000D+02  .452625996547D-08 -.125295423510D+01
     .584870576859D-06  .231448712293D-02  .573135912418D-05  .515368847847D+04
     .482400000000D+06  .111758708954D-07  .948808626145D-01 -.558793544769D-08
     .964919244097D+00  .272031250000D+03  .282510978395D+01 -.819784147300D-08
     .301441127661D-09  .100000000000D+01  .150400000000D+04  .000000000000D+00
     .240000000000D+01  .000000000000D+00 -.107102096081D-07  .500000000000D+02
     .475206000000D+06  .400000000000D+01
 8 08 11  7 14  0  0.0 -.177108217031D-03 -.147792889038D-11  .000000000000D+00
     .181000000000D+03  .684375000000D+01  .412910056504D-08 -.196957096287D+01
     .277534127235D-06  .106270189863D-01  .600144267082D-05  .515370826340D+04
     .482400000000D+06 -.800937414169D-07  .151049060988D+00 -.141561031342D-06
     .986090382417D+00  .283406250000D+03  .293726457844D+01 -.796604610351D-08
     .365729519817D-09  .100000000000D+01  .150400000000D+04  .000000000000D+00
     .240000000000D+01  .000000000000D+00 -.372529029846D-08  .181000000000D+03
     .475206000000D+06  .400000000000D+01
 9 08 11  7 14  0  0.0  .237063504755D-04  .193267624127D-11  .000000000000D+00
     .940000000000D+02  .254062500000D+02  .431410827135D-08 -.228474231767D+01
     .133551657200D-05  .200867243111D-01  .535510480404D-05  .515365952110D+04
     .482400000000D+06  .277534127235D-06  .594251309295D-01  .149011611938D-07
     .973919413093D+00  .278000000000D+03  .144988685852D+01 -.782675458717D-08
     .397516558160D-09  .100000000000D+01  .150400000000D+04  .000000000000D+00
     .340000000000D+01  .000000000000D+00 -.558793544769D-08  .940000000000D+02
     .475206000000D+06  .400000000000D+01
10 08 11  7 14  0  0.0 -.695511698723D-05 -.454747350886D-12  .000000000000D+00
     .150000000000D+02 -.812500000000D+00  .463840749400D-08  .140870045247D+01
     .894069671631D-07  .815878959838D-02  .678189098835D-05  .515372994995D+04
     .482400000000D+06 -.540167093277D-07 -.197475193845D+01  .100582838058D-06
     .961149507552D+00  .252125000000D+03  .558494215023D+00 -.825498671047D-08
    -.393587823084D-09  .100000000000D+01  .150400000000D+04  .000000000000D+00
     .240000000000D+01  .000000000000D+00 -.232830643654D-08  .150000000000D+02
     .475206000000D+06  .400000000000D+01
11 08 11  7 14  0  0.0  .161621719599D-04 -.795807864051D-12  .000000000000D+00
     .990000000000D+02  .497187500000D+02  .621025868220D-08 -.147802831726D+01
     .257976353168D-05  .882152374834D-02  .691227614880D-05  .515365535164D+04
     .482400000000D+06  .143423676491D-06  .303552476865D+01 -.763684511185D-07
     .890708956049D+00  .207437500000D+03  .641502836185D+00 -.883072497800D-08
     .176435920693D-09  .100000000000D+01  .150400000000D+04  .000000000000D+00
     .340000000000D+01  .000000000000D+00 -.121071934700D-07  .990000000000D+02
     .475206000000D+06  .400000000000D+01
12 08 11  7 14  0  0.0 -.342068262398D-03  .227373675443D-11  .000000000000D+00
     .230000000000D+02 -.665000000000D+02  .465662253845D-08 -.108045751355D+01
    -.342912971973D-05  .297115999274D-02  .682286918163D-05  .515378992081D+04
     .482400000000D+06 -.558793544769D-08  .114524238573D+01 -.409781932831D-07
     .964895407310D+00  .249156250000D+03 -.846128027074D+00 -.826034407649D-08
    -.103218585183D-09  .100000000000D+01  .150400000000D+04  .000000000000D+00
     .240000000000D+01  .000000000000D+00 -.116415321827D-07  .230000000000D+02
     .475206000000D+06  .400000000000D+01
14 08 11  7 14  0  0.0 -.197577755898D-03  .477484718431D-11  .000000000000D+00
     .840000000000D+02  .162500000000D+02  .368301055503D-08  .783117115697D+00
     .804662704468D-06  .437699945178D-02  .100787729025D-04  .515375739861D+04
     .482400000000D+06 -.651925802231D-07 -.918608650023D+00  .167638063431D-07
     .988979630994D+00  .198406250000D+03 -.214932161491D+01 -.775960893314D-08
    -.857178562071D-11  .100000000000D+01  .150400000000D+04  .000000000000D+00
     .340000000000D+01  .000000000000D+00 -.931322574615D-08  .840000000000D+02
     .475206000000D+06  .400000000000D+01
15 08 11  7 14  0  0.0 -.206990633160D-03 -.625277607469D-11  .000000000000D+00
     .440000000000D+02  .215625000000D+02  .436268172321D-08  .155587557473D+01
     .106915831566D-05  .112685130443D-02  .916421413422D-05  .515373168945D+04
     .482400000000D+06  .447034835815D-07 -.964786997765D+00 -.111758708954D-07
     .957192830558D+00  .199125000000D+03 -.104195153769D+01 -.806533595362D-08
    -.214294640518D-10  .100000000000D+01  .150400000000D+04  .000000000000D+00
     .240000000000D+01  .000000000000D+00 -.977888703346D-08  .440000000000D+02
     .475206000000D+06  .400000000000D+01
16 08 11  7 14  0  0.0  .967821106315D-04 -.238742359215D-11  .000000000000D+00
     .830000000000D+02 -.680312500000D+02  .463483591666D-08  .263305027085D+01
    -.339187681675D-05  .474274286535D-02  .631622970104D-05  .515370196915D+04
     .482400000000D+06  .186264514923D-08  .116187974050D+01  .633299350739D-07
     .966473043036D+00  .260937500000D+03 -.385480268549D+00 -.811212361680D-08
    -.124290891500D-09  .100000000000D+01  .150400000000D+04  .000000000000D+00
     .240000000000D+01  .000000000000D+00 -.977888703346D-08  .830000000000D+02
     .475206000000D+06  .400000000000D+01
17 08 11  7 14  0  0.0  .402196310461D-04  .454747350886D-12  .000000000000D+00
     .350000000000D+02 -.415625000000D+01  .456161858115D-08  .152092481018D+01
    -.223517417908D-06  .392549566459D-02  .104717910290D-04  .515361152077D+04
     .482400000000D+06 -.260770320892D-07  .220381066275D+01  .745058059692D-07
     .959508053488D+00  .177562500000D+03 -.279865552765D+01 -.801997692137D-08
    -.375015620906D-10  .100000000000D+01  .150400000000D+04  .000000000000D+00
     .240000000000D+01  .000000000000D+00 -.102445483208D-07  .350000000000D+02
     .475206000000D+06  .400000000000D+01
18 08 11  7 14  0  0.0 -.115406233817D-03  .386535248253D-11  .000000000000D+00
     .610000000000D+02 -.140937500000D+02  .488020328006D-08  .277429019840D+01
    -.767409801483D-06  .990640278906D-02  .652298331261D-05  .515373109436D+04
     .482400000000D+06 -.745058059692D-08 -.196628011841D+01 -.149011611938D-06
     .945219644832D+00  .243875000000D+03 -.244377718367D+01 -.820248452355D-08
    -.317513225700D-09  .100000000000D+01  .150400000000D+04  .000000000000D+00
     .240000000000D+01  .000000000000D+00 -.107102096081D-07  .610000000000D+02
     .475206000000D+06  .400000000000D+01
19 08 11  7 14  0  0.0  .355993397534D-04 -.113686837722D-12  .000000000000D+00
     .990000000000D+02 -.101875000000D+02  .458804825348D-08  .865780676909D+00
    -.562518835068D-06  .492459407542D-02  .100750476122D-04  .515375188255D+04
     .482400000000D+06  .109896063805D-06  .226044498047D+01 -.372529029846D-07
     .957307314138D+00  .180281250000D+03 -.432583805183D+00 -.799104714490D-08
    -.203579908492D-10  .100000000000D+01  .150400000000D+04  .000000000000D+00
     .240000000000D+01  .000000000000D+00 -.144354999065D-07  .990000000000D+02
     .475206000000D+06  .400000000000D+01
20 08 11  7 14  0  0.0  .997325405478D-04 -.102318153949D-11  .000000000000D+00
     .400000000000D+02 -.100312500000D+02  .493020536284D-08  .287790943205D+01
    -.447034835815D-06  .358569459058D-02  .610761344433D-05  .515374069595D+04
     .482400000000D+06  .186264514923D-08 -.202000740286D+01 -.186264514923D-08
     .944809398715D+00  .252000000000D+03  .133225479634D+01 -.830713173967D-08
    -.258582199558D-09  .100000000000D+01  .150400000000D+04  .000000000000D+00
     .240000000000D+01  .000000000000D+00 -.651925802231D-08  .400000000000D+02
     .475206000000D+06  .400000000000D+01
21 08 11  7 14  0  0.0  .435346737504D-04 -.159161572810D-11  .000000000000D+00
     .114000000000D+03  .512812500000D+02  .524057543386D-08 -.228009883867D+01
     .244565308094D-05  .143713791622D-01  .679492950439D-05  .515367017746D+04
     .482400000000D+06  .558793544769D-07 -.302470495778D+01 -.238418579102D-06
     .935588014562D+00  .234687500000D+03 -.266843926567D+01 -.831320342115D-08
     .262510934634D-09  .100000000000D+01  .150400000000D+04  .000000000000D+00
     .240000000000D+01  .000000000000D+00 -.116415321827D-07  .114000000000D+03
     .475206000000D+06  .400000000000D+01
22 08 11  7 14  0  0.0  .209645368159D-03 -.454747350886D-12  .000000000000D+00
     .200000000000D+02 -.142812500000D+02  .507413992972D-08  .158363283461D+01
    -.795349478722D-06  .513966777362D-02  .634416937828D-05  .515366575050D+04
     .482400000000D+06 -.484287738800D-07 -.196014742684D+01 -.132247805595D-06
     .942869866315D+00  .248000000000D+03 -.181394102554D+01 -.844713757147D-08
    -.326442169055D-09  .100000000000D+01  .150400000000D+04  .000000000000D+00
     .240000000000D+01  .000000000000D+00 -.176951289177D-07  .200000000000D+02
     .475206000000D+06  .400000000000D+01
